[{"OBJECT_NAME":"YAOGAN-40 01A","OBJECT_ID":"2023-139A","EPOCH":"2026-03-09T23:20:31.440768","MEAN_MOTION":14.12429316,"ECCENTRICITY":0.00020937,"INCLINATION":85.9907,"RA_OF_ASC_NODE":304.5051,"ARG_OF_PERICENTER":91.437,"MEAN_ANOMALY":268.7053,"EPHEMERIS_TYPE":0,"CLASSIFICATION_TYPE":"U","NORAD_CAT_ID":57830,"ELEMENT_SET_NO":999,"REV_AT_EPOCH":12869,"BSTAR":6.725684e-5,"MEAN_MOTION_DOT":1.43e-6,"MEAN_MOTION_DDOT":0},{"OBJECT_NAME":"NOAA 16 DEB","OBJECT_ID":"2000-055EC","EPOCH":"2026-03-08T11:44:35.458656","MEAN_MOTION":14.14036156,"ECCENTRICITY":0.00320793,"INCLINATION":98.6577,"RA_OF_ASC_NODE":68.1669,"ARG_OF_PERICENTER":174.1489,"MEAN_ANOMALY":186.0065,"EPHEMERIS_TYPE":0,"CLASSIFICATION_TYPE":"U","NORAD_CAT_ID":41223,"ELEMENT_SET_NO":999,"REV_AT_EPOCH":52577,"BSTAR":0.0013949964,"MEAN_MOTION_DOT":2.623e-5,"MEAN_MOTION_DDOT":0}]
